{"type":"FeatureCollection","features":[{"type":"Feature","id":129,"geometry":{"type":"Polygon","coordinates":[[[-77.50000000024978,-0.8333333350261727],[-77.5000000003607,-0.6666666690982423],[-77.7500000000958,-0.6666666685313077],[-78.00000000012079,-0.6666666691881235],[-78.00000000000344,-0.8333333350342637],[-77.99999999993757,-1.0000000012758403],[-77.74999999964757,-1.0000000015878556],[-77.50000000012105,-1.000000000965769],[-77.50000000024978,-0.8333333350261727]]]},"properties":{"OBJECTID":129,"NOMBRE":"TENA","AVANCE":"2020","VERSIONES":"1987 / 2020","ESTADO":"En revisión","AUTORES":"DGGM/IIGE","C_HISTORIC":"Historica","C_ACTUAL":"2020 Actualizada / Digitalizada","PRIORIDAD":"Sup de Referencia","N_IIGE":101,"CD_IGM":"OIII-E","CGN_1":"1987 DGGM","FILE_M1":" ","CGN_2":" ","FILE_M2":" ","CGN_3":" ","FILE_M3":" ","CGN_IGTE":"2020 IIGE","FILE_M":" ","TIPO":"HISTORICA","ORIGINAL":"ANALOGICA","SHAPE.AREA":2056324642.41681,"SHAPE.LEN":185250.616561102}},{"type":"Feature","id":66,"geometry":{"type":"Polygon","coordinates":[[[-78.00000000014877,-1.1666666681803255],[-77.99999999993757,-1.0000000012758403],[-78.2499999999298,-1.0000000015270498],[-78.49999999963076,-1.0000000010618995],[-78.50000000008461,-1.1666666677293487],[-78.50000000011853,-1.333333333154106],[-78.2500000002192,-1.3333333336278554],[-78.00000000017262,-1.3333333333080546],[-78.00000000014877,-1.1666666681803255]]]},"properties":{"OBJECTID":66,"NOMBRE":"S. JOSE DE POALÓ","AVANCE":"Programado","VERSIONES":"1986","ESTADO":"Programada","AUTORES":"DGGM","C_HISTORIC":"Historica","C_ACTUAL":"Programada","PRIORIDAD":"Sup de Referencia","N_IIGE":87,"CD_IGM":"ÑIV-B","CGN_1":"1986 DGGM","FILE_M1":" ","CGN_2":" ","FILE_M2":" ","CGN_3":" ","FILE_M3":" ","CGN_IGTE":" ","FILE_M":" ","TIPO":"HISTORICA","ORIGINAL":"ANALOGICA","SHAPE.AREA":2054228253.52634,"SHAPE.LEN":185154.227227052}},{"type":"Feature","id":51,"geometry":{"type":"Polygon","coordinates":[[[-78.00000000000344,-0.8333333350342637],[-78.00000000012079,-0.6666666691881235],[-78.25000000001103,-0.6666666684588455],[-78.50000000041021,-0.6666666688082967],[-78.50000000034919,-0.8333333343536232],[-78.49999999963076,-1.0000000010618995],[-78.2499999999298,-1.0000000015270498],[-77.99999999993757,-1.0000000012758403],[-78.00000000000344,-0.8333333350342637]]]},"properties":{"OBJECTID":51,"NOMBRE":"CHALUPAS","AVANCE":"Programado","VERSIONES":"1986","ESTADO":"Programada","AUTORES":"DGGM","C_HISTORIC":"Historica","C_ACTUAL":"Programada","PRIORIDAD":"Sup de Referencia","N_IIGE":86,"CD_IGM":"ÑIII-F","CGN_1":"1986 DGGM","FILE_M1":" ","CGN_2":" ","FILE_M2":" ","CGN_3":" ","FILE_M3":" ","CGN_IGTE":" ","FILE_M":" ","TIPO":"HISTORICA","ORIGINAL":"ANALOGICA","SHAPE.AREA":2054432270.38092,"SHAPE.LEN":185165.35666261901}},{"type":"Feature","id":109,"geometry":{"type":"Polygon","coordinates":[[[-77.5000000003956,-1.1666666681904583],[-77.50000000012105,-1.000000000965769],[-77.74999999964757,-1.0000000015878556],[-77.99999999993757,-1.0000000012758403],[-78.00000000014877,-1.1666666681803255],[-78.00000000017262,-1.3333333333080546],[-77.74999999979066,-1.3333333336120783],[-77.49999999994554,-1.333333333460109],[-77.5000000003956,-1.1666666681904583]]]},"properties":{"OBJECTID":109,"NOMBRE":"PUERTO NAPO","AVANCE":"Programado","VERSIONES":"1986","ESTADO":"Programada","AUTORES":"DGGM","C_HISTORIC":"Historica","C_ACTUAL":"Programada","PRIORIDAD":"Sup de Referencia","N_IIGE":102,"CD_IGM":"OIV-A","CGN_1":"1986 DGGM","FILE_M1":" ","CGN_2":" ","FILE_M2":" ","CGN_3":" ","FILE_M3":" ","CGN_IGTE":" ","FILE_M":" ","TIPO":"HISTORICA","ORIGINAL":"ANALOGICA","SHAPE.AREA":2056120052.19788,"SHAPE.LEN":185239.46469492698}}]}
